GLOBALSTAR M032         
1 25852U 99037B   24162.29870014  .00000008  00000+0  23818-2 0  9997
2 25852  51.9981  15.1626 0009263 260.5740  99.4012 11.19054706 93159
GLOBALSTAR M051         
1 25853U 99037C   24162.47486040 -.00000031  00000+0  10076-2 0  9999
2 25853  51.9773 217.5970 0001517 257.1717 102.8924 11.42199097 89918
GLOBALSTAR M030         
1 25854U 99037D   24162.41623642 -.00000041  00000+0  72541-3 0  9992
2 25854  51.9900  47.4824 0004298  96.7416 263.3890 11.55095582107083
GLOBALSTAR M048         
1 25872U 99041A   24162.64734036 -.00000083  00000+0 -36460-3 0  9999
2 25872  51.9336 137.8460 0013689 263.1874 268.6935 11.33846815 82830
GLOBALSTAR M026         
1 25873U 99041B   24162.59752348 -.00000081  00000+0 -61037-3 0  9996
2 25873  52.0025 285.5092 0000995   8.7596   5.2417 11.06834068107341
GLOBALSTAR M043         
1 25874U 99041C   24162.46083002 -.00000085  00000+0 -48884-3 0  9996
2 25874  51.9385 231.1201 0011999  38.4400 334.5032 11.25679521 81016
GLOBALSTAR M028         
1 25875U 99041D   24162.34226755 -.00000022  00000+0  50505-3 0  9991
2 25875  51.9611 221.8200 0063054 344.0061  15.8810 12.50557673143656
